{
  "type": "FeatureCollection",
  "features": [
    {
      "type": "Feature",
      "properties": {
        "norad_id": 41866,
        "name": "GOES 16",
        "group": "weather",
        "lat": -0.04137666258815587,
        "lon": -61.36499867131521,
        "alt_km": 35774.252665136926,
        "timestamp": "2025-12-26T20:30:45.580774+00:00",
        "meta_object_name": "GOES 16",
        "meta_object_id": "2016-071A",
        "meta_epoch": "2025-12-26T13:19:40.740960",
        "meta_mean_motion": 1.00271665,
        "meta_eccentricity": 0.00032706,
        "meta_inclination": 0.0794,
        "meta_ra_of_asc_node": 100.8251,
        "meta_arg_of_pericenter": 166.7949,
        "meta_mean_anomaly": 282.9377,
        "meta_ephemeris_type": 0,
        "meta_classification_type": "U",
        "meta_norad_cat_id": 41866,
        "meta_element_set_no": 999,
        "meta_rev_at_epoch": 3337,
        "meta_bstar": 0,
        "meta_mean_motion_dot": -6.9e-07,
        "meta_mean_motion_ddot": 0,
        "tle_line1": "1 41866U 16071A   25360.55533265 -.00000069  00000+0  00000+0 0  9994",
        "tle_line2": "2 41866   0.0794 100.8251 0003270 166.7949 282.9377  1.00271665 33370"
      },
      "geometry": {
        "type": "Point",
        "coordinates": [
          -61.36499867131521,
          -0.04137666258815587
        ]
      }
    },
    {
      "type": "Feature",
      "properties": {
        "norad_id": 41882,
        "name": "FENGYUN 4A",
        "group": "weather",
        "lat": 1.8825576732328484,
        "lon": 166.78513544314256,
        "alt_km": 35778.65297788744,
        "timestamp": "2025-12-26T20:30:45.580785+00:00",
        "meta_object_name": "FENGYUN 4A",
        "meta_object_id": "2016-077A",
        "meta_epoch": "2025-12-26T09:22:21.494784",
        "meta_mean_motion": 1.00262391,
        "meta_eccentricity": 0.00045342,
        "meta_inclination": 1.8816,
        "meta_ra_of_asc_node": 82.2577,
        "meta_arg_of_pericenter": 143.1389,
        "meta_mean_anomaly": 133.8992,
        "meta_ephemeris_type": 0,
        "meta_classification_type": "U",
        "meta_norad_cat_id": 41882,
        "meta_element_set_no": 999,
        "meta_rev_at_epoch": 3319,
        "meta_bstar": 0,
        "meta_mean_motion_dot": -3.36e-06,
        "meta_mean_motion_ddot": 0,
        "tle_line1": "1 41882U 16077A   25360.39052656 -.00000336  00000+0  00000+0 0  9997",
        "tle_line2": "2 41882   1.8816  82.2577 0004534 143.1389 133.8992  1.00262391 33190"
      },
      "geometry": {
        "type": "Point",
        "coordinates": [
          166.78513544314256,
          1.8825576732328484
        ]
      }
    },
    {
      "type": "Feature",
      "properties": {
        "norad_id": 41884,
        "name": "CYGFM05",
        "group": "weather",
        "lat": -26.27493327758871,
        "lon": -90.06452474400268,
        "alt_km": 416.563150269204,
        "timestamp": "2025-12-26T20:30:45.580795+00:00",
        "meta_object_name": "CYGFM05",
        "meta_object_id": "2016-078A",
        "meta_epoch": "2025-12-26T06:48:05.114592",
        "meta_mean_motion": 15.48149992,
        "meta_eccentricity": 0.00104458,
        "meta_inclination": 34.9603,
        "meta_ra_of_asc_node": 318.6293,
        "meta_arg_of_pericenter": 299.4852,
        "meta_mean_anomaly": 60.4828,
        "meta_ephemeris_type": 0,
        "meta_classification_type": "U",
        "meta_norad_cat_id": 41884,
        "meta_element_set_no": 999,
        "meta_rev_at_epoch": 50186,
        "meta_bstar": 0.00037991921,
        "meta_mean_motion_dot": 0.00020625,
        "meta_mean_motion_ddot": 0,
        "tle_line1": "1 41884U 16078A   25360.28339253  .00020625  00000+0  37992-3 0  9995",
        "tle_line2": "2 41884  34.9603 318.6293 0010445 299.4852  60.4828 15.48149992501867"
      },
      "geometry": {
        "type": "Point",
        "coordinates": [
          -90.06452474400268,
          -26.27493327758871
        ]
      }
    },
    {
      "type": "Feature",
      "properties": {
        "norad_id": 41885,
        "name": "CYGFM04",
        "group": "weather",
        "lat": -16.831497797856375,
        "lon": -96.42488992983066,
        "alt_km": 408.57629062596425,
        "timestamp": "2025-12-26T20:30:45.580804+00:00",
        "meta_object_name": "CYGFM04",
        "meta_object_id": "2016-078B",
        "meta_epoch": "2025-12-26T05:11:40.920576",
        "meta_mean_motion": 15.50945052,
        "meta_eccentricity": 0.00089688,
        "meta_inclination": 34.9347,
        "meta_ra_of_asc_node": 293.4499,
        "meta_arg_of_pericenter": 323.6494,
        "meta_mean_anomaly": 36.3618,
        "meta_ephemeris_type": 0,
        "meta_classification_type": "U",
        "meta_norad_cat_id": 41885,
        "meta_element_set_no": 999,
        "meta_rev_at_epoch": 50203,
        "meta_bstar": 0.00038816958,
        "meta_mean_motion_dot": 0.00023266,
        "meta_mean_motion_ddot": 0,
        "tle_line1": "1 41885U 16078B   25360.21644584  .00023266  00000+0  38817-3 0  9996",
        "tle_line2": "2 41885  34.9347 293.4499 0008968 323.6494  36.3618 15.50945052502033"
      },
      "geometry": {
        "type": "Point",
        "coordinates": [
          -96.42488992983066,
          -16.831497797856375
        ]
      }
    },
    {
      "type": "Feature",
      "properties": {
        "norad_id": 41886,
        "name": "CYGFM02",
        "group": "weather",
        "lat": 27.669736934293407,
        "lon": -23.929279191549544,
        "alt_km": 403.52683633843117,
        "timestamp": "2025-12-26T20:30:45.580813+00:00",
        "meta_object_name": "CYGFM02",
        "meta_object_id": "2016-078C",
        "meta_epoch": "2025-12-26T04:50:47.956416",
        "meta_mean_motion": 15.52365862,
        "meta_eccentricity": 0.00105906,
        "meta_inclination": 34.9437,
        "meta_ra_of_asc_node": 291.6942,
        "meta_arg_of_pericenter": 325.3429,
        "meta_mean_anomaly": 34.6603,
        "meta_ephemeris_type": 0,
        "meta_classification_type": "U",
        "meta_norad_cat_id": 41886,
        "meta_element_set_no": 999,
        "meta_rev_at_epoch": 50216,
        "meta_bstar": 0.00040372119,
        "meta_mean_motion_dot": 0.00025494,
        "meta_mean_motion_ddot": 0,
        "tle_line1": "1 41886U 16078C   25360.20194394  .00025494  00000+0  40372-3 0  9999",
        "tle_line2": "2 41886  34.9437 291.6942 0010590 325.3429  34.6603 15.52365862502164"
      },
      "geometry": {
        "type": "Point",
        "coordinates": [
          -23.929279191549544,
          27.669736934293407
        ]
      }
    },
    {
      "type": "Feature",
      "properties": {
        "norad_id": 41887,
        "name": "CYGFM01",
        "group": "weather",
        "lat": 13.310702337977537,
        "lon": -23.050919220856564,
        "alt_km": 416.95406157234356,
        "timestamp": "2025-12-26T20:30:45.580823+00:00",
        "meta_object_name": "CYGFM01",
        "meta_object_id": "2016-078D",
        "meta_epoch": "2025-12-26T14:13:22.088928",
        "meta_mean_motion": 15.48759806,
        "meta_eccentricity": 0.00102008,
        "meta_inclination": 34.9435,
        "meta_ra_of_asc_node": 318.8584,
        "meta_arg_of_pericenter": 294.2358,
        "meta_mean_anomaly": 65.7298,
        "meta_ephemeris_type": 0,
        "meta_classification_type": "U",
        "meta_norad_cat_id": 41887,
        "meta_element_set_no": 999,
        "meta_rev_at_epoch": 50185,
        "meta_bstar": 0.00041171202,
        "meta_mean_motion_dot": 0.00022845,
        "meta_mean_motion_ddot": 0,
        "tle_line1": "1 41887U 16078D   25360.59261677  .00022845  00000+0  41171-3 0  9996",
        "tle_line2": "2 41887  34.9435 318.8584 0010200 294.2358  65.7298 15.48759806501850"
      },
      "geometry": {
        "type": "Point",
        "coordinates": [
          -23.050919220856564,
          13.310702337977537
        ]
      }
    },
    {
      "type": "Feature",
      "properties": {
        "norad_id": 41888,
        "name": "CYGFM08",
        "group": "weather",
        "lat": 24.082200676898204,
        "lon": 80.17297176401574,
        "alt_km": 419.6365619722492,
        "timestamp": "2025-12-26T20:30:45.580834+00:00",
        "meta_object_name": "CYGFM08",
        "meta_object_id": "2016-078E",
        "meta_epoch": "2025-12-26T04:28:38.500608",
        "meta_mean_motion": 15.4998199,
        "meta_eccentricity": 0.00113412,
        "meta_inclination": 34.946,
        "meta_ra_of_asc_node": 304.349,
        "meta_arg_of_pericenter": 314.88,
        "meta_mean_anomaly": 45.1001,
        "meta_ephemeris_type": 0,
        "meta_classification_type": "U",
        "meta_norad_cat_id": 41888,
        "meta_element_set_no": 999,
        "meta_rev_at_epoch": 50202,
        "meta_bstar": 0.00037787487,
        "meta_mean_motion_dot": 0.00021899,
        "meta_mean_motion_ddot": 0,
        "tle_line1": "1 41888U 16078E   25360.18655672  .00021899  00000+0  37787-3 0  9990",
        "tle_line2": "2 41888  34.9460 304.3490 0011341 314.8800  45.1001 15.49981990502029"
      },
      "geometry": {
        "type": "Point",
        "coordinates": [
          80.17297176401574,
          24.082200676898204
        ]
      }
    }
  ]
}